ONEWEB-0249             
1 48967U 21060A   25267.06273677 -.00000035  00000+0 -12444-3 0  9990
2 48967  87.8970 281.8145 0001892  94.7808 265.3539 13.16595918204591
ONEWEB-0250             
1 48968U 21060B   25267.28182600  .00000011  00000+0 -61440-5 0  9995
2 48968  87.8966 280.3973 0002420 114.9662 245.1726 13.25814071204982
ONEWEB-0252             
1 48970U 21060D   25267.01839348  .00000082  00000+0  18161-3 0  9994
2 48970  87.8968 281.8166 0001830  81.6847 278.4492 13.16596130204630
ONEWEB-0253             
1 48971U 21060E   25267.31130098 -.00000213  00000+0 -58986-3 0  9991
2 48971  87.8967 281.7615 0001645  94.6002 265.5317 13.16593912204604
ONEWEB-0254             
1 48972U 21060F   25267.01683184  .00000028  00000+0  40471-4 0  9991
2 48972  87.8973 281.8080 0001634 104.4344 255.6968 13.16594232204569
ONEWEB-0255             
1 48973U 21060G   25267.28280630 -.00000011  00000+0 -61758-4 0  9995
2 48973  87.8962 281.7798 0001690  98.0210 262.1113 13.16593062204672
ONEWEB-0256             
1 48974U 21060H   25267.30892754 -.00000297  00000+0 -80997-3 0  9996
2 48974  87.8963 281.7851 0001877  87.5563 272.5783 13.16593314204640
ONEWEB-0257             
1 48975U 21060J   25267.11340060  .00000160  00000+0  38513-3 0  9998
2 48975  87.8971 281.7946 0001651  93.0443 267.0877 13.16596205204571
